AQUA                    
1 27424U 02022A   26095.58140056  .00001472  00000+0  30312-3 0  9991
2 27424  98.4221  63.4457 0001437 114.6970 307.0738 14.62043668272660
CZ-4B R/B               
1 27432U 02024C   26095.37542587  .00000066  00000+0  56883-4 0  9994
2 27432  98.8780 148.6406 0049220 307.9484  62.1973 14.14552807233015
MIDORI II (ADEOS-II)    
1 27597U 02056A   26095.47532265  .00000460  00000+0  19860-3 0  9995
2 27597  98.7816  54.1460 0000339  22.9980 337.1217 14.29307155214127
H-2A R/B                
1 27601U 02056E   26095.51520005  .00000465  00000+0  17702-3 0  9993
2 27601  98.3250  54.8673 0071415  81.7810  30.2100 14.33780925217953
CZ-4B R/B               
1 28059U 03049C   26095.54664041  .00000505  00000+0  12705-3 0  9999
2 28059  98.6899  91.5099 0048731 148.5823 211.8300 14.55045925190502
CZ-2C R/B               
1 28222U 04012C   26095.44408157  .00076305  00000+0  68229-3 0  9998
2 28222  97.7162 163.3316 0013666 205.5588 154.4998 15.68019060208464
SL-16 R/B               
1 28353U 04021B   26095.39853382  .00000376  00000+0  22020-3 0  9995
2 28353  71.0013 176.4441 0005490 336.0251  24.0615 14.14600686126610
CZ-4B R/B               
1 28415U 04035C   26095.60525544  .00009016  00000+0  31287-3 0  9994
2 28415  97.3449 129.5274 0030384 230.8310 129.0231 15.29569509184027
CZ-2C R/B               
1 28480U 04046B   26095.48101935  .00000269  00000+0  11427-3 0  9993
2 28480  98.1975   8.7955 0140604  75.7676 285.9077 14.27003267112329
ARIANE 5 R/B            
1 28499U 04049H   26095.44486162  .00001313  00000+0  15095-3 0  9996
2 28499  98.2666 264.9111 0082813 264.2866  94.8901 14.85320748149761
CZ-2D R/B               
1 28738U 05024B   26095.56217403  .00051811  00000+0  57455-3 0  9993
2 28738  97.3565 111.7419 0001834 270.7702  89.3346 15.62803961143978
ALOS (DAICHI)           
1 28931U 06002A   26095.59674311  .00001970  00000+0  33762-3 0  9999
2 28931  98.1264  51.4267 0001174 116.0242 244.1085 14.69899743 77434
